ONEWEB-0645             
1 55809U 23029P   24120.90601150  .00000053  00000+0  98830-4 0  9993
2 55809  87.9117  99.8705 0001670 103.3643 256.7676 13.19725333 56258
ONEWEB-0646             
1 55810U 23029Q   24120.93601637 -.00000012  00000+0 -62404-4 0  9993
2 55810  87.9114  99.8648 0002151  94.9620 265.1758 13.19726978 56248
ONEWEB-0648             
1 55811U 23029R   24120.88416454  .00000301  00000+0  77777-3 0  9996
2 55811  87.8936  84.5641 0001823 118.9455 241.1858 13.14503580 57144
ONEWEB-0650             
1 55813U 23029T   24120.89415325  .00000137  00000+0  30939-3 0  9991
2 55813  87.9114  99.8705 0002134  97.3138 262.8237 13.19724007 56244
ONEWEB-0652             
1 55814U 23029U   24120.86513142 -.00000050  00000+0 -16981-3 0  9992
2 55814  87.8935  84.5800 0002001  79.3839 280.7516 13.14502204 57117
ONEWEB-0653             
1 55815U 23029V   24120.92539434 -.00000174  00000+0 -50358-3 0  9995
2 55815  87.8939  84.5467 0001721  76.9123 283.2199 13.14503369 57150
ONEWEB-0654             
1 55816U 23029W   24120.92063843 -.00000090  00000+0 -27793-3 0  9996
2 55816  87.8935  84.5589 0002004  69.0803 291.0541 13.14504672 57173
